OBJECT_NAME,OBJECT_ID,EPOCH,MEAN_MOTION,ECCENTRICITY,INCLINATION,RA_OF_ASC_NODE,ARG_OF_PERICENTER,MEAN_ANOMALY,EPHEMERIS_TYPE,CLASSIFICATION_TYPE,NORAD_CAT_ID,ELEMENT_SET_NO,REV_AT_EPOCH,BSTAR,MEAN_MOTION_DOT,MEAN_MOTION_DDOT
METEOR-M2 2,2019-038A,2026-07-03T14:41:17.115360,14.24368886,.00014171,98.9150,172.1403,23.4090,336.7152,0,U,44387,999,36363,-.99007864E-4,-.275E-5,0
ICEYE-X4,2019-038D,2026-07-03T16:26:00.807648,15.29661661,.00118088,97.8746,218.5704,240.9715,119.0342,0,U,44390,999,38432,.43406078E-3,.12424E-3,0
MOMENTUS-X1,2019-038Y,2026-07-02T02:48:32.453856,15.67965327,.00052277,97.6736,229.8805,315.2908,44.7931,0,U,44408,999,38889,.50107667E-3,.55507E-3,0
COSMOS 2538,2019-039D,2026-07-03T16:29:27.494592,15.20908025,.00412807,97.5876,264.1984,349.1184,10.9153,0,U,44424,999,38241,.27604263E-3,.6172E-4,0
YAOGAN-30 06A,2019-045A,2026-07-03T14:00:59.783328,15.02771458,.0003172,34.9924,230.1513,53.1281,306.9718,0,U,44449,999,37908,.18168875E-3,.2451E-4,0
YAOGAN-30 06B,2019-045B,2026-07-03T13:28:35.810112,15.02775670,.00089161,34.9913,229.8180,221.1428,138.8609,0,U,44450,999,37912,.23944464E-3,.3243E-4,0
YAOGAN-30 06C,2019-045C,2026-07-03T14:30:56.852352,15.02760387,.00004484,34.9925,229.4411,232.9922,127.0745,0,U,44451,999,37902,.10635891E-3,.1422E-4,0
MERIDIAN 8,2019-046A,2026-06-30T16:16:01.852608,2.00597784,.70792941,63.1456,49.0155,274.9042,14.6109,0,U,44453,999,5061,0,-.59E-6,0
COSMOS 2539,2019-048A,2026-07-03T20:50:07.771200,1.00271378,.0000577,0.0330,99.3344,28.0400,119.0396,0,U,44457,999,2539,0,.92E-6,0
EDRS-C,2019-049A,2026-07-02T20:33:42.437952,1.00271418,.00012097,0.0148,64.7290,52.5943,254.5290,0,U,44475,999,2536,0,0,0
INTELSAT 39 (IS-39),2019-049B,2026-07-02T20:52:37.700256,1.00268633,.00005929,0.0212,29.7717,309.6573,316.5859,0,U,44476,999,2528,0,0,0
AMOS-17,2019-050A,2026-07-02T20:18:30.773664,1.00274241,.00025078,0.0344,303.3144,192.8022,106.4073,0,U,44479,999,2534,0,.12E-5,0
AEHF-5 (USA 292),2019-051A,2026-07-02T19:33:17.962272,1.00269114,.00655603,1.4404,337.3504,359.2698,330.6190,0,U,44481,999,2541,0,-.245E-5,0
BRO-1,2019-054A,2026-07-02T17:50:44.983680,15.99559699,.0010311,44.9867,195.4315,67.3344,292.8656,0,U,44495,999,38222,.84274414E-3,.43681E-2,.90141065E-4
GLOBAL-4,2019-054E,2026-07-02T09:30:18.268992,15.65794716,.0003949,45.0045,148.5536,92.2858,267.8492,0,U,44499,999,38274,.55266E-3,.57474E-3,0
NAVSTAR 78 (USA 293),2019-056A,2026-07-01T20:17:32.477856,2.00570204,.00627565,55.6295,330.5609,197.8313,333.9324,0,U,44506,999,5036,0,-.81E-6,0
COSMOS 2540,2019-057A,2026-07-03T15:36:34.746624,13.85950550,.00165554,99.2050,195.9243,124.7094,235.5624,0,U,44517,999,34615,.85728503E-4,.55E-6,0
KX-09,2019-058B,2026-07-03T16:46:24.432096,14.96703072,.00091325,97.7751,197.9037,292.6260,67.3995,0,U,44520,999,37250,.10109494E-3,.1096E-4,0
ZY-1 02D,2019-059A,2026-07-03T14:09:23.685408,14.35266078,.00037181,98.6717,246.0895,341.7075,18.3975,0,U,44528,999,35669,.95916225E-4,.23E-5,0
BNU-1 (JINGSHI 1),2019-059B,2026-07-03T15:54:58.254336,14.48400771,.00124986,98.6091,314.0558,328.4813,31.5629,0,U,44529,999,35937,.13552368E-3,.461E-5,0
TAURUS-1 (JINNIUZUO 1),2019-059C,2026-07-03T16:34:42.324096,14.72268870,.00073548,98.6427,350.5441,256.2431,103.7956,0,U,44530,999,36107,.90229471E-3,.5648E-4,0
ZHUHAI-1 03B,2019-060C,2026-07-03T15:53:27.668256,15.55033416,.00077031,97.5547,343.3285,249.8673,110.1752,0,U,44536,999,37888,.60349904E-3,.40598E-3,0
ZHUHAI-1 03D,2019-060E,2026-07-03T14:51:54.989280,15.50719610,.00068861,97.5401,335.2614,234.6988,125.3620,0,U,44538,999,37862,.55612901E-3,.3198E-3,0
ZHUHAI-1 03E,2019-060F,2026-07-03T14:29:27.652992,15.41601019,.00047028,97.5635,335.1274,329.7278,30.3696,0,U,44539,999,37829,.51985513E-3,.21819E-3,0
BEIDOU-3 M24,2019-061A,2026-06-30T03:06:14.697792,1.86229317,.00085596,54.3970,182.2910,358.7023,1.3089,0,U,44542,999,4603,0,.71E-6,0
BEIDOU-3 M23,2019-061B,2026-07-03T11:06:35.228736,1.86227531,.0005842,54.3962,182.1475,339.4120,7.0782,0,U,44543,999,4609,0,.84E-6,0
YUNHAI-1 02,2019-063A,2026-07-02T20:17:26.784960,14.32714538,.00070394,98.4118,193.8394,105.4661,254.7301,0,U,44547,999,35411,.13628356E-3,.329E-5,0
COSMOS 2541,2019-065A,2026-07-02T05:24:58.649184,2.00603413,.64941057,62.7150,155.5583,272.1029,20.3251,0,U,44552,999,4952,0,.203E-5,0
GAOFEN-10R,2019-066A,2026-07-03T16:24:58.304160,14.83037332,.00071944,98.0504,138.3835,82.6315,277.5716,0,U,44622,999,36482,.17274435E-3,.1351E-4,0
EUTELSAT 5 WEST B,2019-067A,2026-07-02T17:22:45.636384,1.00271497,.00034014,0.0702,331.4543,130.1820,74.8137,0,U,44624,999,2459,0,-.31E-6,0
MEV-1,2019-067B,2026-06-16T22:18:40.152960,1.00269616,.00027946,0.8740,268.9828,179.8034,307.2103,0,U,44625,999,6174,0,-.149E-5,0
