METEOR-M2 2             
1 44387U 19038A   26184.61200365 -.00000275  00000+0 -99008-4 0  9996
2 44387  98.9150 172.1403 0001417  23.4090 336.7152 14.24368886363637
ICEYE-X4                
1 44390U 19038D   26184.68473157  .00012424  00000+0  43406-3 0  9995
2 44390  97.8746 218.5704 0011808 240.9715 119.0342 15.29661661384329
MOMENTUS-X1             
1 44408U 19038Y   26183.11704229  .00055507  00000+0  50108-3 0  9995
2 44408  97.6736 229.8805 0005227 315.2908  44.7931 15.67965327388893
COSMOS 2538             
1 44424U 19039D   26184.68712378  .00006172  00000+0  27604-3 0  9990
2 44424  97.5876 264.1984 0041280 349.1184  10.9153 15.20908025382410
YAOGAN-30 06A           
1 44449U 19045A   26184.58402527  .00002451  00000+0  18169-3 0  9997
2 44449  34.9924 230.1513 0003172  53.1281 306.9718 15.02771458379087
YAOGAN-30 06B           
1 44450U 19045B   26184.56152558  .00003243  00000+0  23944-3 0  9990
2 44450  34.9913 229.8180 0008916 221.1428 138.8609 15.02775670379129
YAOGAN-30 06C           
1 44451U 19045C   26184.60482468  .00001422  00000+0  10636-3 0  9993
2 44451  34.9925 229.4411 0000448 232.9922 127.0745 15.02760387379026
MERIDIAN 8              
1 44453U 19046A   26181.67779922 -.00000059  00000+0  00000+0 0  9990
2 44453  63.1456  49.0155 7079294 274.9042  14.6109  2.00597784 50612
COSMOS 2539             
1 44457U 19048A   26184.86814550  .00000092  00000+0  00000+0 0  9993
2 44457   0.0330  99.3344 0000577  28.0400 119.0396  1.00271378 25394
EDRS-C                  
1 44475U 19049A   26183.85674118  .00000000  00000+0  00000+0 0  9995
2 44475   0.0148  64.7290 0001209  52.5943 254.5290  1.00271418 25364
INTELSAT 39 (IS-39)     
1 44476U 19049B   26183.86988079  .00000000  00000+0  00000+0 0  9991
2 44476   0.0212  29.7717 0000592 309.6573 316.5859  1.00268633 25287
AMOS-17                 
1 44479U 19050A   26183.84618951  .00000120  00000+0  00000+0 0  9996
2 44479   0.0344 303.3144 0002507 192.8022 106.4073  1.00274241 25343
AEHF-5 (USA 292)        
1 44481U 19051A   26183.81479123 -.00000245  00000+0  00000+0 0  9992
2 44481   1.4404 337.3504 0065560 359.2698 330.6190  1.00269114 25413
BRO-1                   
1 44495U 19054A   26183.74357620  .00436810  90141-4  84274-3 0  9998
2 44495  44.9867 195.4315 0010311  67.3344 292.8656 15.99559699382229
GLOBAL-4                
1 44499U 19054E   26183.39604478  .00057474  00000+0  55266-3 0  9993
2 44499  45.0045 148.5536 0003949  92.2858 267.8492 15.65794716382744
NAVSTAR 78 (USA 293)    
1 44506U 19056A   26182.84551479 -.00000081  00000+0  00000+0 0  9990
2 44506  55.6295 330.5609 0062756 197.8313 333.9324  2.00570204 50368
COSMOS 2540             
1 44517U 19057A   26184.65040216  .00000055  00000+0  85729-4 0  9992
2 44517  99.2050 195.9243 0016555 124.7094 235.5624 13.85950550346157
KX-09                   
1 44520U 19058B   26184.69889389  .00001096  00000+0  10109-3 0  9998
2 44520  97.7751 197.9037 0009132 292.6260  67.3995 14.96703072372506
ZY-1 02D                
1 44528U 19059A   26184.58985747  .00000230  00000+0  95916-4 0  9999
2 44528  98.6717 246.0895 0003718 341.7075  18.3975 14.35266078356697
BNU-1 (JINGSHI 1)       
1 44529U 19059B   26184.66317424  .00000461  00000+0  13552-3 0  9991
2 44529  98.6091 314.0558 0012498 328.4813  31.5629 14.48400771359377
TAURUS-1 (JINNIUZUO 1)  
1 44530U 19059C   26184.69076764  .00005648  00000+0  90229-3 0  9993
2 44530  98.6427 350.5441 0007354 256.2431 103.7956 14.72268870361071
ZHUHAI-1 03B            
1 44536U 19060C   26184.66212579  .00040598  00000+0  60350-3 0  9999
2 44536  97.5547 343.3285 0007703 249.8673 110.1752 15.55033416378889
ZHUHAI-1 03D            
1 44538U 19060E   26184.61938645  .00031980  00000+0  55613-3 0  9996
2 44538  97.5401 335.2614 0006886 234.6988 125.3620 15.50719610378624
ZHUHAI-1 03E            
1 44539U 19060F   26184.60379228  .00021819  00000+0  51986-3 0  9991
2 44539  97.5635 335.1274 0004702 329.7278  30.3696 15.41601019378292
BEIDOU-3 M24            
1 44542U 19061A   26181.12933678  .00000071  00000+0  00000+0 0  9999
2 44542  54.3970 182.2910 0008559 358.7023   1.3089  1.86229317 46030
BEIDOU-3 M23            
1 44543U 19061B   26184.46290774  .00000084  00000+0  00000+0 0  9997
2 44543  54.3962 182.1475 0005842 339.4120   7.0782  1.86227531 46098
YUNHAI-1 02             
1 44547U 19063A   26183.84544890  .00000329  00000+0  13628-3 0  9991
2 44547  98.4118 193.8394 0007039 105.4661 254.7301 14.32714538354110
COSMOS 2541             
1 44552U 19065A   26183.22567881  .00000203  00000+0  00000+0 0  9993
2 44552  62.7150 155.5583 6494105 272.1029  20.3251  2.00603413 49529
GAOFEN-10R              
1 44622U 19066A   26184.68400815  .00001351  00000+0  17274-3 0  9996
2 44622  98.0504 138.3835 0007194  82.6315 277.5716 14.83037332364825
EUTELSAT 5 WEST B       
1 44624U 19067A   26183.72413931 -.00000031  00000+0  00000+0 0  9996
2 44624   0.0702 331.4543 0003401 130.1820  74.8137  1.00271497 24598
MEV-1                   
1 44625U 19067B   26167.92963140 -.00000149  00000+0  00000+0 0  9993
2 44625   0.8740 268.9828 0002794 179.8034 307.2103  1.00269616 61744
